ID,name,address,latitude,longitude,place_id,created_at,updated_at
1,サッポロビール　北海道工場,〒061-1405 北海道恵庭市戸磯５４２−１,42.8618037,141.6029986,ChIJxzbCs37YdF8RFfYTnZUbVYY,2022-08-14 10:23:35,2022-08-14 10:23:35
2,アサヒビール　北海道工場,〒003-0022 北海道札幌市白石区南郷通４丁目南１−１,43.0417097,141.4045542,ChIJbzvNsLArC18R2WoQZqiyaB8,2022-08-14 10:23:35,2022-08-14 10:23:35
3,キリンビール　北海道千歳工場,〒066-8711 北海道千歳市上長都949-1,42.8456075,141.6192853,ChIJ-QR4_p3YdF8RB10bu62t7oI,2022-08-14 10:23:36,2022-08-14 10:23:36
4,札幌開拓使麦酒醸造所,〒060-0032 北海道札幌市中央区北２条東４丁目1番地2,43.0654478,141.3621328,ChIJS3ZdGtkpC18R7D2Ol3HoxdY,2022-08-14 10:23:36,2022-08-14 10:23:36
5,サッポロビール博物館,〒065-8633 北海道札幌市東区北７条東９丁目１−１,43.0714671,141.3689124,ChIJ0fYsL4QpC18Ry-fF7_rGYBM,2022-08-14 10:23:38,2022-08-14 10:23:38
6,小樽ビール銭函醸造所,〒047-0261 北海道小樽市銭函３丁目２６３−１９,43.1399317,141.1763926,ChIJQ33weE4nC18RI7r1Cm5pTZ0,2022-08-14 10:23:38,2022-08-14 10:23:38
7,（株）ベアレン醸造所,〒020-0061 岩手県盛岡市北山１丁目３−３１,39.7145985,141.1543409,ChIJeQKqphR2hV8RRtZftL62As8,2022-08-14 10:23:41,2022-08-14 10:23:41
8,キリンビール　仙台工場,〒983-0001 宮城県仙台市宮城野区港２丁目２−１,38.267609,140.993649,ChIJCzo5l8CIiV8Rj0PQEggIRqU,2022-08-14 10:23:43,2022-08-14 10:23:43
9,サッポロビール　那須工場,〒325-0001 栃木県那須郡那須町高久４４５３−４９,37.0162821,140.0274613,ChIJExLi7qI5LhURdD8z0L_Sxmg,2022-08-14 10:23:46,2022-08-14 10:23:46
10,キリンビール　取手工場,〒302-8502 茨城県取手市桑原１８８−１,35.905651,140.07357,ChIJC3lndBF3ImAR-reRIzTS5JM,2022-08-14 10:23:48,2022-08-14 10:23:48
11,アサヒビール　茨城工場（スーパードライミュージアム）,〒302-0106 茨城県守谷市緑１丁目１−１,35.9509478,139.9673022,ChIJW2WALB2fGGARjjfGmx9Sw7M,2022-08-14 10:23:48,2022-08-14 10:23:48
12,サントリー〈天然水のビール工場〉東京・武蔵野,〒183-0025 東京都府中市矢崎町３丁目１,35.6600932,139.4782285,ChIJeRFHy8LkGGARAShi3OsbvHY,2022-08-14 10:23:58,2022-08-14 10:23:58
13,ヱビスビール記念館,〒150-8522 東京都渋谷区恵比寿４丁目２０−１ 恵比寿ガーデンプレイス,35.6432025,139.7145181,ChIJY24wMRSLGGARdbDv6D2KdHE,2022-08-14 10:24:00,2022-08-14 10:24:00
14,サッポロビール　千葉工場,〒273-0014 千葉県船橋市高瀬町 サッポロビール,35.666206,139.9921427,ChIJ4YeH8Xx_GGARx1ZzpzTS4Ds,2022-08-14 10:24:04,2022-08-14 10:24:04
15,キリンビール　横浜工場,〒230-8628 神奈川県横浜市鶴見区生麦１丁目１７−１,35.4907808,139.6634966,ChIJT4EAFdtdGGARhRlVHPv7Kfw,2022-08-14 10:24:09,2022-08-14 10:24:09
16,キリンディスティラリー富士御殿場蒸溜所,〒412-0003 静岡県御殿場市柴怒田９７０,35.3366181,138.8967966,ChIJsTEDhLZwGWAReVAYQeic0tY,2022-08-14 10:24:14,2022-08-14 10:24:14
17,サントリー白州蒸溜所,〒408-0316 山梨県北杜市白州町鳥原２９１３−１,35.8280752,138.303616,ChIJl4oX8kBpHGAR4YFoY5T-Vg8,2022-08-14 10:24:30,2022-08-14 10:24:30
18,サントリー登美の丘ワイナリー,〒400-0103 山梨県甲斐市大垈２７８６,35.7127354,138.5089141,ChIJL7Av3LEJHGARdDEGhAThDO0,2022-08-14 10:24:30,2022-08-14 10:24:30
19,軽井沢ブルワリー,〒385-0021 長野県佐久市長土呂６４−３,36.290081,138.480255,ChIJKQK-1XjMHWARPzAK0uSzplM,2022-08-14 10:24:43,2022-08-14 10:24:43
20,キリンビール・キリンビバレッジ 滋賀工場,〒522-0342 滋賀県犬上郡多賀町敏満寺１６００,35.225684,136.2738476,ChIJ7SJbzRDUA2ARmqAjiMMUOkA,2022-08-14 10:25:02,2022-08-14 10:25:02
21,長濱浪漫ビール 長濱蒸溜所,〒526-0056 滋賀県長浜市朝日町１４−１,35.3769703,136.2677228,ChIJWdUV6j0pAmARLHkaTA-GcEE,2022-08-14 10:25:07,2022-08-14 10:25:07
22,サントリービール 京都工場,〒617-0844 京都府長岡京市調子３丁目１−１,34.9110061,135.6970239,ChIJGye4aPMEAWARm0y2eT-zc0k,2022-08-14 10:25:12,2022-08-14 10:25:12
23,アサヒビール ミュージアム,〒564-0071 大阪府吹田市西の庄町１−４５,34.7623228,135.5187302,ChIJZ3VUTsvlAGARi-sFS2CfNUc,2022-08-14 10:25:13,2022-08-14 10:25:13
24,ナギサビール（株）,〒649-2211 和歌山県西牟婁郡白浜町２９２７−２２０,33.6593632,135.3445317,ChIJwU_mbB-hB2ARrKi9fLXLSu4,2022-08-14 10:25:23,2022-08-14 10:25:23
25,キリンビール 神戸工場,〒651-1516 兵庫県神戸市北区赤松台2-1-1,34.8784903,135.178843,ChIJ0xXgNPBkAGARM88cN2R6fZI,2022-08-14 10:25:27,2022-08-14 10:25:27
26,キリンビール 岡山工場,〒709-0841 岡山県岡山市東区瀬戸町万富６７８,34.7544907,134.0781176,ChIJm9LC0kMTVDURn2O33ewxbpw,2022-08-14 10:25:39,2022-08-14 10:25:39
27,サッポロビール・ 岡山ワイナリー,〒701-2214 岡山県赤磐市東軽部１５５６,34.8096074,134.0272074,ChIJ-T7ZtwIVVDURcQ5rM6UmbXo,2022-08-14 10:25:47,2022-08-14 10:25:47
28,キリンビール 福岡工場,〒838-0058 福岡県朝倉市馬田３６０１,33.4085559,130.6256563,ChIJVdxBH9CfQTURKytgMhBj_g4,2022-08-14 10:26:24,2022-08-14 10:26:24
29,サッポロビール 九州日田工場 ウエルカム館,〒877-0054 大分県日田市高瀬６９７９,33.2979371,130.9440418,ChIJjW6pkGVqQTURZoHnd5Thu4o,2022-08-14 10:26:25,2022-08-14 10:26:25
30,サントリー九州熊本工場,〒861-3104 熊本県上益城郡嘉島町北甘木 字八幡水478,32.7466751,130.7919544,ChIJbdPPwYDyQDUR5UiH6G8hsPY,2022-08-14 10:26:29,2022-08-14 10:26:29
31,北海道ワイン（株） 本社･醸造所,〒047-0154 北海道小樽市朝里川温泉１丁目130番地,43.1586814,141.0169956,ChIJ3XGEGSTeCl8RwclqAiikpXI,2022-08-14 10:26:43,2022-08-14 10:26:43
32,（株）キャメルファーム,〒046-0002 北海道余市郡余市町登町１４０８,43.1599623,140.8168701,ChIJadLpgwPmCl8RPDb5mp2j02A,2022-08-14 10:26:51,2022-08-14 10:26:51
33,ニッカウヰスキー 余市蒸溜所,〒046-0003 北海道余市郡余市町黒川町７丁目６,43.185662,140.7897211,ChIJW_vtVJDlCl8Rqsgyt57skUc,2022-08-14 10:26:58,2022-08-14 10:26:58
34,Domaine Raison,〒071-0771 北海道空知郡中富良野町中富良野 町 東 １線北4号,43.3718519,142.3933683,ChIJzx1q6CxNc18RibPYSTaIjeQ,2022-08-14 10:27:10,2022-08-14 10:27:10
35,いけだワイン城（一般社団法人）,〒083-0002 北海道中川郡池田町清見 83番地4,42.9190235,143.4578958,ChIJcaVatZy8c18RR61d2j1zlYQ,2022-08-14 10:27:13,2022-08-14 10:27:13
36,サンマモルワイナリー 第二工場,〒038-0223 青森県南津軽郡大鰐町島田滝ノ沢１００−９,40.4951118,140.5755646,ChIJ4WcDnEbiml8RG-gKAESnVVs,2022-08-14 10:27:14,2022-08-14 10:27:14
37,小坂七滝ワイナリー,〒017-0202 秋田県鹿角郡小坂町上向字 滝ノ下22,40.3579323,140.7828886,ChIJweNSg1XYml8RWpp1-8zzAUc,2022-08-14 10:27:16,2022-08-14 10:27:16
38,（株）エーデルワイン ワインシャトー大迫,〒028-3203 岩手県花巻市大迫町大迫第１０地割１８−３,39.474386,141.285214,ChIJu-xO4nyLhV8RF6DCuQD8Kj0,2022-08-14 10:27:23,2022-08-14 10:27:23
39,（株）岩手くずまきワイン,〒028-5403 岩手県岩手郡葛巻町江刈第１地割９５−５５,40.076801,141.511188,ChIJBUccAJDmhF8Rwp9udJEIVPo,2022-08-14 10:27:28,2022-08-14 10:27:28
40,自園自醸ワイン紫波,〒028-3535 岩手県紫波郡紫波町遠山松原１−１１,39.5533579,141.2043065,ChIJLX_8Sm-PhV8R2i83-1pR1Vk,2022-08-14 10:27:33,2022-08-14 10:27:33
41,タケダワイナリー,〒999-3162 山形県上山市四ツ谷２丁目６−１,38.1721885,140.2907152,ChIJ7ZCcxBezi18RHaaoy_wXGzU,2022-08-14 10:27:58,2022-08-14 10:27:58
42,ウッディーファーム&ワイナリー,〒999-3212 山形県上山市原口８２９,38.111928,140.314133,ChIJg2ERIYxNil8RZ--jyLbgKkg,2022-08-14 10:28:05,2022-08-14 10:28:05
43,金渓ワイン佐藤ぶどう酒,〒999-2211 山形県南陽市赤湯１０７２−２,38.0503491,140.1693798,ChIJbwZaSr9Vil8RzHnbdn64Xck,2022-08-14 10:28:07,2022-08-14 10:28:07
44,㈲大浦葡萄酒,〒999-2211 山形県南陽市赤湯３１２,38.0470577,140.1632265,ChIJD_vBLpVVil8RXo5jj8_tzxY,2022-08-14 10:28:10,2022-08-14 10:28:10
45,南三陸ワイナリー（株）,〒986-0733 宮城県本吉郡南三陸町志津川旭ケ浦7−３,38.6729134,141.456768,ChIJy1xVbPz_iF8RTyEtbkSHxfs,2022-08-14 10:28:17,2022-08-14 10:28:17
46,ワイン工房あいづ,〒969-3133 福島県耶麻郡猪苗代町千代田千代田３−７,37.5490247,140.1057616,ChIJgzUSROqoil8RcEbMgNy_vSE,2022-08-14 10:28:22,2022-08-14 10:28:22
47,ふくしま逢瀬ワイナリー,〒963-0213 福島県郡山市逢瀬町多田野郷士郷士2−番地,37.3924738,140.2268247,ChIJOy2a5dIRIGARsTaggqFgE7g,2022-08-14 10:28:23,2022-08-14 10:28:23
48,島崎酒造 どうくつ酒蔵,〒321-0632 栃木県那須烏山市神長 字天神149,36.6571727,140.1383467,ChIJbxVeap_dIWARR9xJ3oAAaGc,2022-08-14 10:28:33,2022-08-14 10:28:33
49,秩父ファーマーズファクトリー 兎田ワイナリー,〒369-1503 埼玉県秩父市下吉田３７２０,36.0392105,139.0341513,ChIJ80TOrvu3HmARFfRnQGt0_Eg,2022-08-14 10:28:49,2022-08-14 10:28:49
50,横濱ワイナリー,〒231-0801 神奈川県横浜市中区新山下１丁目３−１２,35.4425972,139.6545819,ChIJnc7wuB5dGGARNafNcX4mO1s,2022-08-14 10:29:20,2022-08-14 10:29:20
51,シャトー・メルシャン 勝沼ワイナリー,〒409-1313 山梨県甲州市勝沼町下岩崎１４２５−１,35.6603201,138.7225625,ChIJiW9k6NRXGWAR46Q2OF7O4tc,2022-08-14 10:29:42,2022-08-14 10:29:42
52,マルス山梨ワイナリー 本坊酒造,〒406-0022 山梨県笛吹市石和町山崎１２６,35.6593806,138.6437668,ChIJ05lEmgb8G2ARg1-dotVHpc4,2022-08-14 10:29:45,2022-08-14 10:29:45
53,モンデ酒造,〒406-0031 山梨県笛吹市石和町市部４７６,35.6527702,138.6376538,ChIJe7gGwPf7G2ARMWwBAcc-Ih4,2022-08-14 10:29:50,2022-08-14 10:29:50
54,マルス穂坂ワイナリー 本坊酒造,〒407-0172 山梨県韮崎市穂坂町上今井8−１,35.7289102,138.4898181,ChIJf5iJsnwJHGAR_DrVjzTg1WE,2022-08-14 10:29:52,2022-08-14 10:29:52
55,ロリアンワイン 白百合醸造,〒409-1315 山梨県甲州市勝沼町等々力８７８−２,35.6644428,138.7084518,ChIJeeoIspr9G2AR7oin-qzbhw4,2022-08-14 10:29:54,2022-08-14 10:29:54
56,ルミエールワイナリー,〒405-0052 山梨県笛吹市一宮町南野呂６２４,35.65447,138.7113052,ChIJM5-qqHn9G2ARne6HLpMRFw8,2022-08-14 10:29:57,2022-08-14 10:29:57
57,マンズワイン勝沼ワイナリー,〒409-1306 山梨県甲州市勝沼町山４００,35.6837699,138.7217614,ChIJXb2CuR5WGWAROO63jp1R9wI,2022-08-14 10:29:59,2022-08-14 10:29:59
58,シャトレーゼベルフォーレワイナリー,〒400-0105 山梨県甲斐市下今井１９５４,35.6878321,138.4904241,ChIJ6Yckdu4JHGARwBIhkT42cEc,2022-08-14 10:30:02,2022-08-14 10:30:02
59,フジッコワイナリー,〒409-1313 山梨県甲州市勝沼町下岩崎２７７０−１,35.6481366,138.7208143,ChIJSZQBxthXGWARATcBySS405M,2022-08-14 10:30:08,2022-08-14 10:30:08
60,くらむぼんワイン,〒409-1313 山梨県甲州市勝沼町下岩崎８３５,35.6555771,138.7231784,ChIJcTHY3tZXGWARfsyT7My1uT4,2022-08-14 10:30:10,2022-08-14 10:30:10
61,シャトー酒折ワイナリー,〒400-0804 山梨県甲府市酒折町１３３８−２０３,35.663017,138.601779,ChIJIdolSXT5G2ARcFi7a5F2yPo,2022-08-14 10:30:12,2022-08-14 10:30:12
62,麻屋葡萄酒,〒409-1315 山梨県甲州市勝沼町等々力１６６,35.665528,138.715082,ChIJ7VDXi4b9G2ARyoXT31MAn5k,2022-08-14 10:30:17,2022-08-14 10:30:17
63,富士山ワイナリー,〒418-0101 静岡県富士宮市根原 宝山498,35.4167177,138.5857112,ChIJOb8qW2TdG2AR53dhB7RsMl8,2022-08-14 10:30:34,2022-08-14 10:30:34
64,中伊豆ワイナリーヒルズ,〒410-2501 静岡県伊豆市下白岩１４３３−２７,34.9838479,138.9974511,ChIJdbpiPBzrGWARy-YkOIqNfxA,2022-08-14 10:30:40,2022-08-14 10:30:40
65,小牧ワイナリー･ななつぼし葡萄酒工房,〒485-0806 愛知県小牧市野口 字大洞２３２５−２,35.3169754,136.9974079,ChIJR_ASgUltA2AR1JAFlA3UgVY,2022-08-14 10:30:48,2022-08-14 10:30:48
66,マンズワイン 小諸ワイナリー,〒384-0043 長野県小諸市諸３７５,36.3421021,138.410965,ChIJKZxV8zzIHWARj4w0KzMANcA,2022-08-14 10:31:06,2022-08-14 10:31:06
67,シャトー・メルシャン椀子ワイナリー,〒386-0407 長野県上田市長瀬１４６−２,36.3420396,138.3009794,ChIJqRd2EHi7HWARIjfOL2v25HQ,2022-08-14 10:31:10,2022-08-14 10:31:10
68,シャトー・メルシャン 桔梗ヶ原ワイナリー,〒399-6461 長野県塩尻市宗賀１２９８−８０,36.1141556,137.9329792,ChIJsWkjpsUEHWARxDK0L-b101k,2022-08-14 10:31:13,2022-08-14 10:31:13
69,サドヤ ワイナリー,〒400-0024 山梨県甲府市北口３丁目３−２４,35.6674841,138.5738205,ChIJdedOqs75G2ARCzoEDbfAczk,2022-08-14 10:31:17,2022-08-14 10:31:17
70,安曇野ワイナリー,〒399-8103 長野県安曇野市三郷小倉６６８７−５,36.2475734,137.8501648,ChIJMwBxG2cTHWARxCKyxIAaK_8,2022-08-14 10:31:19,2022-08-14 10:31:19
71,ヴィラデストガーデンファーム アンド ワイナリー,〒389-0505 長野県東御市和６０２７,36.3858378,138.3400065,ChIJMeASPxW5HWARQQvjB1AOWsU,2022-08-14 10:31:35,2022-08-14 10:31:35
72,フェルミエ,〒953-0012 新潟県新潟市西蒲区越前浜４５０１,37.8045835,138.8454385,ChIJK0LHmtfB9F8R9fTQ7E86vIw,2022-08-14 10:31:48,2022-08-14 10:31:48
73,玉川酒造（株） 越後ゆきくら館,〒946-0216 新潟県魚沼市須原１６４３,37.3237904,139.0188075,ChIJN6zGR0Gf9V8RfJaazownQqo,2022-08-14 10:31:54,2022-08-14 10:31:54
74,Domaine Beau（トレボー（株））,〒939-1755 富山県南砺市立野原西 コート･ドール 1197,36.5155927,136.8612074,ChIJ_Wj-q7o7-F8RucKgeQvKEmQ,2022-08-14 10:31:57,2022-08-14 10:31:57
75,ハイディワイナリー,〒927-2351 石川県輪島市門前町千代31−２１−１,37.2708595,136.7346624,ChIJVRbh1o3T8F8R1ya1k4efcFQ,2022-08-14 10:32:04,2022-08-14 10:32:04
76,能登ワイン（株）,〒927-0006 石川県鳳珠郡穴水町字旭ケ丘リ−５−１,37.2314439,136.9964093,ChIJQfR9GjLW9l8RG8sYURn5eN4,2022-08-14 10:32:07,2022-08-14 10:32:07
77,丹波ワイン（株）,〒622-0231 京都府船井郡京丹波町豊田鳥居野９６,35.1710894,135.3971223,ChIJ_S7Pk544AGARgg12-SK9uOU,2022-08-14 10:32:28,2022-08-14 10:32:28
78,サントリー 山崎蒸溜所,〒618-0001 大阪府三島郡島本町山崎５丁目２−１,34.8923552,135.6744151,ChIJ-WxR9WMDAWARHW0W4OC39qE,2022-08-14 10:32:38,2022-08-14 10:32:38
79,神戸・灘「昔の酒蔵」沢の鶴資料館,〒657-0852 兵庫県神戸市灘区大石南町１丁目３−29番1号,34.7032547,135.2332077,ChIJ0y1oQy2MAGAR0d98-AX8Bno,2022-08-14 10:32:42,2022-08-14 10:32:42
80,天橋立ワイナリー,〒629-2234 京都府宮津市国分１２３,35.5756468,135.1774887,ChIJ5z1QTCKX_18RxOUnU6yxkYk,2022-08-14 10:32:50,2022-08-14 10:32:50
81,河内ワイン館,〒583-0841 大阪府羽曳野市駒ヶ谷１０２７,34.54446,135.6269912,ChIJq7k78UIoAWARJbKBOXg-vg0,2022-08-14 10:32:55,2022-08-14 10:32:55
82,カタシモワインフード,〒582-0017 大阪府柏原市太平寺２丁目９−１４,34.5835197,135.6324193,ChIJ9cbc3MknAWARrNv8HCozJ1g,2022-08-14 10:33:00,2022-08-14 10:33:00
83,湯浅ワイナリー,〒643-0005 和歌山県有田郡湯浅町栖原３３２,34.0423668,135.1706579,ChIJ_SPgeBdFB2ARmf7CEDGZDww,2022-08-14 10:33:07,2022-08-14 10:33:07
84,神戸ワイナリー（農業公園）,〒651-2204 兵庫県神戸市西区押部谷町高和１５５７−１,34.7323941,135.0403648,ChIJn7Nctsp_AGARI383DlEKwfc,2022-08-14 10:33:21,2022-08-14 10:33:21
85,江井ヶ嶋酒造（株）,〒674-0065 兵庫県明石市大久保町西島９１９,34.6813409,134.9055295,ChIJfc2HY8jWVDURdhEWEUyYxwQ,2022-08-14 10:33:32,2022-08-14 10:33:32
86,是里ワイナリー,〒701-2435 岡山県赤磐市仁堀中１３５６−１,34.8675571,134.0132683,ChIJKesKrwMWVDURrmwymsbDABA,2022-08-14 10:33:38,2022-08-14 10:33:38
87,ふなおワイナリー,〒710-0262 岡山県倉敷市船穂町水江６１１−２,34.602928,133.720188,ChIJS8Bdvy5XUTURmA8iecSc2cU,2022-08-14 10:33:41,2022-08-14 10:33:41
88,広島三次ワイナリー,〒728-0023 広島県三次市東酒屋町１０４４５−３,34.7777938,132.8666488,ChIJDUO3kc3qUDURJVvFmBuTUqM,2022-08-14 10:34:08,2022-08-14 10:34:08
89,せらワイナリー（せら夢公園）,〒722-1732 広島県世羅郡世羅町黒渕518番地1,34.6296856,132.9825248,ChIJjyFiG7XvUDUR9yhYjdRJPEQ,2022-08-14 10:34:10,2022-08-14 10:34:10
90,島根ワイナリー ,〒699-0733 島根県出雲市大社町菱根２６４,35.3954082,132.7113776,ChIJgwt99DVDVzUR_5K4ZPGGxSE,2022-08-14 10:34:21,2022-08-14 10:34:21
91,さぬきワイナリー,〒769-2103 香川県さぬき市小田２６７１−１３,34.3612783,134.2125252,ChIJ35bwps2PUzURqsF2Pzr_hos,2022-08-14 10:34:26,2022-08-14 10:34:26
92,内子ワイナリー,〒791-3301 愛媛県喜多郡内子町内子１５１,33.5510142,132.6393259,ChIJ3_W9ATKETzURTaOC0eluSEs,2022-08-14 10:34:50,2022-08-14 10:34:50
93,立花ワイン,〒834-0082 福岡県八女市立花町兼松７２６,33.197231,130.600939,ChIJG56796ypQTURnQgYWmqMHdE,2022-08-14 10:34:56,2022-08-14 10:34:56
94,安心院葡萄酒工房,〒872-0521 大分県宇佐市安心院町下毛７９８,33.447243,131.35114,ChIJxRNbU1sBRDURDByTJQGKzg0,2022-08-14 10:35:37,2022-08-14 10:35:37
95,（株）山鹿蒸溜所,〒861-0565 熊本県山鹿市鹿央町合里９８０−１,32.9794302,130.6780781,ChIJicP-2Ur5QDURGM_mnlTe9cU,2022-08-14 10:36:23,2022-08-14 10:36:23
96,マルス津貫蒸溜所 津貫貴匠蔵 マルスウイスキー 本坊酒造,〒899-3611 鹿児島県南さつま市加世田津貫６５９４,31.358976,130.2860123,ChIJvU_IL13gPTURZoPY8OB1tww,2022-08-14 10:36:56,2022-08-14 10:36:56
97,（株）ニセコ蒸溜所,〒048-1511 北海道虻田郡ニセコ町ニセコ４７８−１５,42.8483775,140.6395748,ChIJK7cvqbClCl8RB7XdWXFr_F4,2022-08-14 10:37:23,2022-08-14 10:37:23
98,八戸酒類（株） 八鶴工場,〒031-0086 青森県八戸市八日町１,40.510851,141.491746,ChIJoWEh9w5Sm18RuO8i7A5Z36M,2022-08-14 10:38:01,2022-08-14 10:38:01
99,ニッカウヰスキー（株） 仙台工場 宮城峡蒸溜所,〒989-3433 宮城県仙台市青葉区ニッカ1番地,38.3080001,140.6506331,ChIJWahESkPTi18RTg2R45JqIgc,2022-08-14 10:38:22,2022-08-14 10:38:22
100,米鶴酒造（株）,〒992-0301 山形県東置賜郡高畠町二井宿１０７６,38.010395,140.2389832,ChIJfzJszbtXil8RwPRYGwNkQXo,2022-08-14 10:38:42,2022-08-14 10:38:42
101,笹の川酒造（株）,〒963-0108 福島県郡山市笹川１丁目１７８,37.3619142,140.3724374,ChIJE5HhihZrIGARRlvQulmZ-r0,2022-08-14 10:39:14,2022-08-14 10:39:14
102,愛友酒造（株）,〒311-2421 茨城県潮来市辻２０５,35.9460901,140.5581469,ChIJ6-kLUEpWImARBhlTRQrRt9M,2022-08-14 10:40:00,2022-08-14 10:40:00
103,外池酒造店,〒321-4216 栃木県芳賀郡益子町塙333番地1,36.4607586,140.0784061,ChIJlVGy3sf8IWARRqv0tD1KTiw,2022-08-14 10:40:13,2022-08-14 10:40:13
104,和蔵酒造（株）,〒299-1131 千葉県君津市下湯江２４０,35.3190736,139.8866902,ChIJp0nuPbANGGARx7iCnfcTdx0,2022-08-14 10:41:48,2022-08-14 10:41:48
105,富士正酒造,〒418-0101 静岡県富士宮市根原４５０−１,35.4115678,138.5911431,ChIJhYDFLHLdG2AR_LbRUVMdPxI,2022-08-14 10:44:37,2022-08-14 10:44:37
106,キリンビール　名古屋工場,〒452-0908 愛知県清須市寺野花笠１００,35.210062,136.850221,ChIJgXtvb7t1A2AR7lkSFQu6BAY,2022-08-14 10:45:20,2022-08-14 10:45:20
107,マルス信州蒸溜所 マルスウイスキー 本坊酒造,〒399-4301 長野県上伊那郡宮田村４７５２−３１,35.7477051,137.901317,ChIJtQyZJwvtHGARrqayf_ffQn0,2022-08-14 10:45:47,2022-08-14 10:45:47
108,八海山雪室,〒949-7112 新潟県南魚沼市長森４５９,37.106407,138.9325288,ChIJqTx4xWvz9V8RDtmtDaFh_TU,2022-08-14 10:46:57,2022-08-14 10:46:57
109,（株）角口酒造店,〒389-2412 長野県飯山市常郷１１４７,36.927372,138.393679,ChIJFxjTzaEa9l8RQMeSWxd6au0,2022-08-14 10:47:00,2022-08-14 10:47:00
110,六甲山蒸溜所,〒657-0101 兵庫県神戸市灘区六甲山町南六甲１０３４−２２９,34.7573099,135.2289562,ChIJ_cTVt_KLAGAR2XlqwGjTqcg,2022-08-14 10:48:32,2022-08-14 10:48:32
111,黄桜 伏水蔵,〒612-8242 京都府京都市伏見区横大路下三栖梶原町５３,34.9300578,135.7484136,ChIJpwPeQGMFAWARp1eOS0ubrxk,2022-08-14 10:49:21,2022-08-14 10:49:21
112,浜福鶴 吟醸工房,〒658-0025 兵庫県神戸市東灘区魚崎南町４丁目４−６,34.7096452,135.272953,ChIJgUdxshGNAGARdky4I233XNg,2022-08-14 10:50:42,2022-08-14 10:50:42
113,（株）サクラオブルワリーアンドディスティラリー,〒738-0004 広島県廿日市市桜尾１丁目１２−１,34.3550501,132.3398375,ChIJj21BzxC7WjUR3CWYYC8yfmM,2022-08-14 10:52:21,2022-08-14 10:52:21
114,通潤酒造（株）,〒861-3518 熊本県上益城郡山都町浜町５４,32.6849126,130.9874322,ChIJn_NmZ7vBQDURY0cwa86JuAg,2022-08-14 10:54:45,2022-08-14 10:54:45
115,嘉之助蒸溜所,〒899-2421 鹿児島県日置市日吉町神之川８４５−３,31.6029649,130.3354953,ChIJtQGddGRrPjURJrw14nU1ve0,2022-08-14 10:56:59,2022-08-14 10:56:59
116,田中酒造 亀甲蔵,〒047-0016 北海道小樽市信香町２−２,43.18616,141.0134131,ChIJK3S4ul3gCl8RqOD0wRgNyyM,2022-08-14 10:57:48,2022-08-14 10:57:48
117,高砂酒造 明治酒蔵,〒070-0030 北海道旭川市宮下通１７丁目右1号,43.7603256,142.3724384,ChIJ0QfRRT7mDF8RUqp10TZM8WQ,2022-08-14 10:59:22,2022-08-14 10:59:22
118,男山 酒造り資料舘,〒079-8412 北海道旭川市永山２条７丁目１,43.796223,142.40945,ChIJDe8g6qDmDF8RbXtV31xC5Ng,2022-08-14 10:59:31,2022-08-14 10:59:31
119,（株）鳴海醸造店,〒036-0377 青森県黒石市中町１−１,40.64414,140.5967341,ChIJKcysoocGm18RGPnn0yC1bQQ,2022-08-14 11:00:43,2022-08-14 11:00:43
120,八戸酒造（株）,〒031-0812 青森県八戸市湊町本町９,40.5243348,141.5231835,ChIJlyMeSDJSm18RNF7g3BDEi6M,2022-08-14 11:01:58,2022-08-14 11:01:58
121,（株）設楽酒造店　月山の酒蔵　資料館,〒990-0521 山形県寒河江市谷沢７６９−１,38.4041975,140.2349963,ChIJUb0odCHCi18RP-9D5uxEkfk,2022-08-14 11:05:34,2022-08-14 11:05:34
122,酒造資料館 東光の酒蔵,〒992-0031 山形県米沢市大町２丁目３−２２,37.9056359,140.1123076,ChIJCRgSPzDwil8Ro44ElZw45bQ,2022-08-14 11:05:47,2022-08-14 11:05:47
123,（名）寒梅酒造,〒989-6216 宮城県大崎市古川柏崎境田１５,38.576165,140.8844437,ChIJG_IBIeJsiV8RiU84ojr3LP8,2022-08-14 11:06:44,2022-08-14 11:06:44
124,（株）一ノ蔵,〒987-1304 宮城県大崎市松山千石大欅１４,38.5019953,141.048708,ChIJW1nJb810iV8ReZ7y5hcRQEM,2022-08-14 11:06:49,2022-08-14 11:06:49
125,磐乃井酒造（株）,〒029-3205 岩手県一関市花泉町涌津舘７２,38.818559,141.1911771,ChIJ7SX-_TzeiF8R_gEFbVG10H8,2022-08-14 11:07:11,2022-08-14 11:07:11
126,（株）佐浦,〒985-0052 宮城県塩竈市本町２−１９,38.3164457,141.0192331,ChIJhS1fhAyFiV8RB5hM6HQUIdU,2022-08-14 11:07:20,2022-08-14 11:07:20
127,有賀醸造(資),〒961-0303 福島県白河市東釜子本町９６,37.0998748,140.3488564,ChIJ89cDbuJJIGARgm9IC5cKTas,2022-08-14 11:09:17,2022-08-14 11:09:17
128,千駒酒造（株）,〒961-0903 福島県白河市年貢町１５−１,37.1252425,140.2206778,ChIJDVWlDYs6IGARGVcp-LyjJsc,2022-08-14 11:09:45,2022-08-14 11:09:45
129,ほまれ酒造（株）,〒966-0902 福島県喜多方市松山町村松常盤町２７０６,37.6750243,139.8722943,ChIJ13nYW8i3il8R739_UG8PcE8,2022-08-14 11:09:50,2022-08-14 11:09:50
130,豊國酒造,〒969-6536 福島県河沼郡会津坂下町市中一番甲３５５４,37.5603854,139.826665,ChIJlds6ayZN9V8Rnh2UcJvaExA,2022-08-14 11:10:28,2022-08-14 11:10:28
131,稲葉酒造,〒300-4353 茨城県つくば市沼田１４８５,36.206453,140.087248,ChIJb8G4HW8GImARLGaf4sFHqv8,2022-08-14 11:11:17,2022-08-14 11:11:17
132,鍋店（株） 神崎酒造蔵,〒289-0221 千葉県香取郡神崎町神崎本宿１９１６,35.9031961,140.4033402,ChIJI_4fXeJeImAR1UxpYb-zPbE,2022-08-14 11:11:22,2022-08-14 11:11:22
133,片山酒造（株）,〒321-1263 栃木県日光市瀬川１４６−２,36.7280054,139.6865474,ChIJk3TAzcsKH2AR6MLIArtCuIk,2022-08-14 11:12:30,2022-08-14 11:12:30
134,第一酒造　開華,〒327-0031 栃木県佐野市田島町４８８,36.298715,139.565371,ChIJFxqbN_46H2ARcBVk-vBPpUk,2022-08-14 11:12:50,2022-08-14 11:12:50
135,天鷹酒造（株）,〒324-0411 栃木県大田原市蛭畑２１６６,36.8035018,140.0974544,ChIJrRkuRCrXIWARbrTru1MSPu8,2022-08-14 11:13:24,2022-08-14 11:13:24
136,渡邊佐平商店,〒321-1261 栃木県日光市今市４５０,36.723781,139.687325,ChIJRU_etc0KH2ARyyoy4jqTKDI,2022-08-14 11:13:34,2022-08-14 11:13:34
137,帝松 松岡醸造（株）,〒355-0326 埼玉県比企郡小川町下古寺７−２,36.0434497,139.2424415,ChIJA3bz6TTSHmARt4dijr_g7JY,2022-08-14 11:14:06,2022-08-14 11:14:06
138,土田酒造（株） 酒蔵 誉国光,〒378-0102 群馬県利根郡川場村川場湯原２６９１,36.7041294,139.1127123,ChIJt3b92YxDHmARjC0eXh2O_94,2022-08-14 11:14:11,2022-08-14 11:14:11
139,武蔵鶴酒造,〒355-0328 埼玉県比企郡小川町大塚２４３,36.0565372,139.2590635,ChIJaa-sVMPTHmARLhIxErdUnqk,2022-08-14 11:14:15,2022-08-14 11:14:15
140,横田酒造（株）,〒361-0022 埼玉県行田市桜町２丁目２９−３,36.145457,139.468552,ChIJMX0oOSIsH2AR3HHYUw2iT8I,2022-08-14 11:14:20,2022-08-14 11:14:20
141,白瀧酒造（株）,〒949-6101 新潟県南魚沼郡湯沢町湯沢２６４０,36.9393822,138.8099992,ChIJ98S-TjsCHmAReQsqWrFK1ds,2022-08-14 11:14:24,2022-08-14 11:14:24
142,千曲錦酒造,〒385-0021 長野県佐久市長土呂１１１０,36.2860346,138.4646428,ChIJ2y1PFJrLHWARy16JL5VTBNA,2022-08-14 11:14:38,2022-08-14 11:14:38
143,晴雲酒造,〒355-0328 埼玉県比企郡小川町大塚１７８−２,36.0538487,139.2558567,ChIJG7u8GMXTHmARMnYhRXiQHUo,2022-08-14 11:14:52,2022-08-14 11:14:52
144,石川酒造（株）,〒197-0003 東京都福生市熊川１,35.719252,139.332597,ChIJZWN0apofGWAR3dmql_EjxPc,2022-08-14 11:15:41,2022-08-14 11:15:41
145,田村酒造場,〒197-0011 東京都福生市福生６２６,35.7415749,139.319932,ChIJgQVZLMohGWARVB7ptmeP7xs,2022-08-14 11:15:50,2022-08-14 11:15:50
146,武甲酒造 柳田総本店,〒368-0046 埼玉県秩父市宮側町２１−２７,36.0005689,139.0841109,ChIJZQ2gVHjJHmAR4NWXQ-5uilE,2022-08-14 11:16:17,2022-08-14 11:16:17
147,清龍酒造（株）,〒349-0133 埼玉県蓮田市閏戸６５９−３,35.9997706,139.6470739,ChIJGUzReSzGGGARpxH8nhGQBNY,2022-08-14 11:16:28,2022-08-14 11:16:28
148,滝澤酒造（株）,〒366-0826 埼玉県深谷市田所町９−２０,36.194599,139.274569,ChIJaf7ip9zbHmAR8Kc1iJURZyM,2022-08-14 11:16:36,2022-08-14 11:16:36
149,東薫酒造（株）,〒287-0003 千葉県香取市佐原イ−６２７,35.8890581,140.4948389,ChIJyTNqsOn3ImARqSLIx3nShgI,2022-08-14 11:17:58,2022-08-14 11:17:58
150,中沢酒造,〒258-0003 神奈川県足柄上郡松田町松田惣領１８７５,35.3465357,139.1370205,ChIJhVqLfkSnGWARZ9RrO9azMGQ,2022-08-14 11:19:12,2022-08-14 11:19:12
151,久保田酒造,〒252-0153 神奈川県相模原市緑区根小屋７０２,35.5737,139.282219,ChIJM-UrKVgbGWARC3fQiPB6EE4,2022-08-14 11:19:45,2022-08-14 11:19:45
152,小澤酒造,〒198-0172 東京都青梅市沢井２丁目７７０,35.804796,139.1934869,ChIJZRXIaLc6GWARGoda-VjTAtM,2022-08-12 14:37:45,2022-08-12 14:37:45
153,井出醸造店,〒401-0301 山梨県南都留郡富士河口湖町船津８,35.5021464,138.7656264,ChIJK4jkNSleGWARTc3G7kw2oBw,2022-08-14 11:22:22,2022-08-14 11:22:22
154,勝沼醸造,〒409-1313 山梨県甲州市勝沼町下岩崎３７１,35.6561575,138.7157342,ChIJZ7nu7n79G2ARG7VxJs6WY5s,2022-08-14 11:22:39,2022-08-14 11:22:39
155,丸藤葡萄酒工業,〒409-1314 山梨県甲州市勝沼町藤井７８０,35.6500652,138.7149957,ChIJncKMs3z9G2ARStgoqpTNKL0,2022-08-14 11:23:21,2022-08-14 11:23:21
156,花の舞酒造,〒434-0004 静岡県浜松市浜北区宮口６３２,34.8277076,137.7709727,ChIJH0LNBnkfG2ARsKnJCn7wOHs,2022-08-14 11:23:32,2022-08-14 11:23:32
157,ガイアフロー　静岡蒸溜所,〒421-2223 静岡県静岡市葵区落合555番地,35.1204981,138.3254524,ChIJR64Ni862G2ARUPdmw9SE0To,2022-08-14 11:24:30,2022-08-14 11:24:30
158,ほうらいせん吟醸工房,〒441-2524 愛知県豊田市黒田町南水別７１３,35.197217,137.4648833,ChIJtWaSpd5UG2ARF17GQF3bcJ0,2022-08-14 11:26:14,2022-08-14 11:26:14
159,中埜酒造 本社,〒475-0878 愛知県半田市東本町２丁目２４,34.8956789,136.9347721,ChIJF28n-qyFBGARhjf1AMfFnB0,2022-08-14 11:26:25,2022-08-14 11:26:25
160,日本泉酒造,〒500-8429 岐阜県岐阜市加納清水町３丁目,35.4087037,136.7580542,ChIJTXSf-zmpA2AR7bwD8qBfdQo,2022-08-14 11:26:47,2022-08-14 11:26:47
161,大雪渓酒造（株）,〒399-8602 長野県北安曇郡池田町会染９６４２−２,36.389553,137.8877433,ChIJXc56FFNuHWAR-hdoq9IziEg,2022-08-14 11:28:44,2022-08-14 11:28:44
162,ＥＨ酒造,〒399-8204 長野県安曇野市豊科高家１０９０−１,36.255567,137.9236197,ChIJASmOpYcNHWARAQavlcjcRAg,2022-08-14 11:28:50,2022-08-14 11:28:50
163,美寿々酒造,〒399-6462 長野県塩尻市大字洗馬芦ノ田２４０２,36.1116449,137.9098332,ChIJN9TwpScbHWAR9jODbSB8Hso,2022-08-14 11:29:17,2022-08-14 11:29:17
164,米澤酒造,〒399-3801 長野県上伊那郡中川村大草４１８２−１,35.637847,137.947485,ChIJjcjeFUSOHGARWrKpAaLMr14,2022-08-14 11:29:33,2022-08-14 11:29:33
165,岩波酒造,〒390-0221 長野県松本市里山辺５１５９,36.2236914,137.9973572,ChIJ_SUdw9UOHWARIybuk8Zfp-A,2022-08-14 11:29:38,2022-08-14 11:29:38
166,麒麟山酒造（株）,〒959-4402 新潟県東蒲原郡阿賀町津川３６３６,37.6810381,139.4549502,ChIJz_wjSj4u9V8Rue2lgIfGJGA,2022-08-14 11:30:13,2022-08-14 11:30:13
167,今代司酒造（株）,〒950-0074 新潟県新潟市中央区鏡が岡１−１,37.9159634,139.0718593,ChIJtVM_q4fJ9F8R3bKoV-jFpa8,2022-08-14 11:30:29,2022-08-14 11:30:29
168,大洋酒造（株） 和水蔵,〒958-0857 新潟県村上市飯野１丁目４−３１,38.2197733,139.4771534,ChIJNysGQVZui18RMGkepgaf7Xk,2022-08-14 11:30:34,2022-08-14 11:30:34
169,菊水酒造（株）,〒957-0011 新潟県新発田市島潟７５０,37.9603052,139.3542123,ChIJ7_ZRiwIxi18RI5ad5BnKvk0,2022-08-14 11:30:44,2022-08-14 11:30:44
170,越後桜酒造（株）,〒959-2005 新潟県阿賀野市山口町１丁目７−１３,37.840658,139.214915,ChIJvxhKcR_S9F8ROGxhwF6YZEg,2022-08-14 11:30:58,2022-08-14 11:30:58
171,原酒造（株）,〒945-0056 新潟県柏崎市新橋５−１２,37.366455,138.5513178,ChIJZ_aQV9K19V8R1gBtAYnRebI,2022-08-14 11:32:15,2022-08-14 11:32:15
172,吉乃川（株）,〒940-1105 新潟県長岡市摂田屋４丁目８−１２ 中越酒類販売,37.4163064,138.8410357,ChIJu8nNh6-o9V8RkuOwAEbc-JA,2022-08-14 11:32:48,2022-08-14 11:32:48
173,高の井酒造,〒947-0004 新潟県小千谷市東栄３丁目７ 7番67号,37.313861,138.812514,ChIJN45RIJC89V8RJ5_HibjDdR8,2022-08-14 11:32:53,2022-08-14 11:32:53
174,若鶴酒造　大正蔵・三郎丸蒸留所,〒939-1308 富山県砺波市三郎丸２０８,36.6557907,136.970306,ChIJHfuIiSSH918RWANBdKFK1cE,2022-08-14 11:34:07,2022-08-14 11:34:07
175,舟木酒造(資),〒910-0802 福井県福井市大和田町４６−３−１,36.0976435,136.2571177,ChIJqXvhK3mV-F8Rk-2rSK9nLkk,2022-08-14 11:35:16,2022-08-14 11:35:16
176,松波酒造（株）,〒927-0602 石川県鳳珠郡能登町松波３０−１１４,37.3545892,137.2421165,ChIJY2e4Xg3J9l8RMek-ExJf8jU,2022-08-14 11:35:22,2022-08-14 11:35:22
177,恵那山醸造元 はざま酒造　酒游館,〒508-0041 岐阜県中津川市本町４丁目１−５１,35.4941606,137.5009551,ChIJZx8wU0S0HGARBqSIYzQlIfA,2022-08-14 11:37:14,2022-08-14 11:37:14
178,藤岡酒造（株）,〒612-8051 京都府京都市伏見区今町６７２,34.9351226,135.7624608,ChIJ19OnzJEPAWAR-j0TpD7i7RE,2022-08-14 11:39:19,2022-08-14 11:39:19
179,松井酒造,〒606-8305 京都府京都市左京区吉田河原町１丁目６,35.0254048,135.7735002,ChIJfZEK8F4IAWARcyU-13_UUuk,2022-08-14 11:39:47,2022-08-14 11:39:47
180,月桂冠　大倉記念館,〒612-8361 京都府京都市伏見区片原町300番地,34.929136,135.76161,ChIJ9wWDR48PAWARnM6rJb4igfI,2022-08-14 11:40:03,2022-08-14 11:40:03
181,美冨久酒造（株） ,〒528-0025 滋賀県甲賀市水口町西林口３−２,34.974052,136.159245,ChIJo2K1nu9gAWARmJLGHKaTh7w,2022-08-14 11:40:09,2022-08-14 11:40:09
182,伊藤酒造,〒512-1211 三重県四日市市桜町１１０,34.9944706,136.5383373,ChIJkUxPO-uSA2AR_SDUdMyqOQY,2022-08-14 11:40:21,2022-08-14 11:40:21
183,若戎吟醸館,〒518-0226 三重県伊賀市阿保１３１７,34.6685779,136.180092,ChIJCwPBe9KqBmAR0wmxF7SOMH4,2022-08-14 11:41:46,2022-08-14 11:41:46
184,大門酒造,〒576-0031 大阪府交野市森南３丁目１２−１,34.7778496,135.6888331,ChIJyU147SQZAWAR-0WunaBY6hE,2022-08-14 11:42:14,2022-08-14 11:42:14
185,ハクレイ酒造 天の蔵（あまのくら）,〒626-0071 京都府宮津市由良９４９,35.5151172,135.2832822,ChIJb2R8JEyO_18Ro4PdJFeWzYI,2022-08-14 11:43:12,2022-08-14 11:43:12
186,西山酒造場,〒669-4302 兵庫県丹波市市島町中竹田１１７１,35.2412264,135.1290688,ChIJSxe83JUEAGARJMoVhFh7-0M,2022-08-14 11:44:14,2022-08-14 11:44:14
187,梅乃宿酒造（株）,〒639-2135 奈良県葛城市寺口27番地1,34.4882334,135.7090093,ChIJ__9v6RItAWARE0ETJVKns_c,2022-08-14 11:44:49,2022-08-14 11:44:49
188,今西酒造本店,〒633-0001 奈良県桜井市三輪５１０,34.5254197,135.8470852,ChIJDdEjAMo0AWAR9GjJI38yV0o,2022-08-14 11:44:55,2022-08-14 11:44:55
189,喜多酒造（株）,〒634-0062 奈良県橿原市御坊町８,34.490928,135.793257,ChIJz5mC7NbMBmARKte9KWs5_co,2022-08-14 11:45:05,2022-08-14 11:45:05
190,中谷酒造（株）,〒639-1117 奈良県大和郡山市番条町５６１,34.6290344,135.7917659,ChIJFwZvaIgwAWARNGhU7N9lCsU,2022-08-14 11:46:17,2022-08-14 11:46:17
191,和歌山の祝砲酒造（株）,〒640-8329 和歌山県和歌山市田中町２丁目２０,34.228545,135.186315,ChIJi8UCa9iyAGARGzmkIraEv6s,2022-08-14 11:46:52,2022-08-14 11:46:52
192,（有）北庄司酒造店,〒598-0021 大阪府泉佐野市日根野３１７３,34.3805648,135.3286177,ChIJ03YsP6XJAGARCf0Zqkp6dOw,2022-08-14 11:49:51,2022-08-14 11:49:51
193,菊正宗酒造記念館,〒658-0026 兵庫県神戸市東灘区魚崎西町１丁目９−１,34.7083996,135.2679423,ChIJZfcZaw-NAGARo3ya6mnUg94,2022-08-14 11:53:44,2022-08-14 11:53:44
194,灘菊酒造,〒670-0972 兵庫県姫路市手柄１丁目１２１,34.8165206,134.6808013,ChIJW7u_E17gVDURA5APnqg5QLM,2022-08-14 11:50:42,2022-08-14 11:50:42
195,白鶴酒造（株）,〒658-0041 兵庫県神戸市東灘区住吉南町４丁目５−５,34.7097393,135.2614009,ChIJITZx7qmNAGARHc8XFe_0_PY,2022-08-14 11:53:58,2022-08-14 11:53:58
196,赤磐酒造（株）,〒709-0821 岡山県赤磐市河本１１１３,34.7481639,134.0163458,ChIJN-Ta34sRVDUR_2ai8qx5cYs,2022-08-14 11:54:48,2022-08-14 11:54:48
197,森田酒造,〒710-0054 岡山県倉敷市本町８−８ 森田酒造場,34.5963385,133.7733719,ChIJX0ZG9zhWUTURkM4Lk9BYZpo,2022-08-14 11:54:59,2022-08-14 11:54:59
198,菊池酒造（株）,〒713-8121 岡山県倉敷市玉島阿賀崎１２１２,34.5418745,133.6668726,ChIJeax_qXJbUTURHwi6jPnf0fs,2022-08-14 11:55:05,2022-08-14 11:55:05
199,ヨイキゲン（株）,〒719-1175 岡山県総社市清音上中島３７２−１,34.6408882,133.7322998,ChIJEZRzpR9UUTURHg-gWSlbk1Q,2022-08-14 11:55:22,2022-08-14 11:55:22
200,（有）大岩酒造本店,〒689-4401 鳥取県日野郡江府町江尾１８７２,35.2840758,133.4864651,ChIJtzhPUSqNVjUR-3XmR90f3zo,2022-08-14 11:55:28,2022-08-14 11:55:28
201,平喜酒造（株）,〒719-0243 岡山県浅口市鴨方町鴨方１２８３,34.5378686,133.5901044,ChIJ64eBL6NDUTURwGr4uEy5DXA,2022-08-14 11:55:48,2022-08-14 11:55:48
202,大谷酒造（株）,〒689-2352 鳥取県東伯郡琴浦町浦安３６８,35.4939459,133.6918615,ChIJTdTQPhRxVjUR3g8yIGBUcGM,2022-08-14 11:56:31,2022-08-14 11:56:31
203,千代むすび酒造 岡空本店,〒684-0004 鳥取県境港市大正町１３１,35.5451919,133.2246731,ChIJg2nKz7JVVjURI_97-XsGY6E,2022-08-14 11:56:43,2022-08-14 11:56:43
204,くめざくら大山ブルワリー,〒689-4108 鳥取県西伯郡伯耆町丸山１７４０−３０,35.3876533,133.46681,ChIJ5wa0dUH1VjURL4ompOyv6vE,2022-08-14 11:57:02,2022-08-14 11:57:02
205,梅津酒造（有）,〒689-2223 鳥取県東伯郡北栄町大谷 １３５０番地,35.4984178,133.7327087,ChIJ5U88cB90VjURybUWhH1w8zg,2022-08-14 11:57:13,2022-08-14 11:57:13
206,（株）三宅本店　千福　酒工房せせらぎ,〒737-0045 広島県呉市本通７丁目７,34.2521248,132.5772521,ChIJ1ds7vbsJUDUR5c_KURsoU0Q,2022-08-14 11:58:01,2022-08-14 11:58:01
207,賀茂鶴酒造,〒739-0011 広島県広島市西条本町９−７,34.4305075,132.7460533,ChIJ11lP_3dlUDURKoM8u93XJhc,2022-08-14 11:58:13,2022-08-14 11:58:13
208,中島屋酒造場,〒746-0011 山口県周南市土井２丁目１−３,34.0781087,131.7728585,ChIJjYlzjMTnRDURLXwKQEg1CMU,2022-08-14 12:01:00,2022-08-14 12:01:00
209,綾菊酒造（株）,〒761-2204 香川県綾歌郡綾川町山田下３３９３−１,34.2229448,133.9471522,ChIJ1wM8OdTEUzURd2XnGK6y4mg,2022-08-14 12:03:21,2022-08-14 12:03:21
210,都美人酒造（株）,〒656-0424 兵庫県南あわじ市榎列西川２４７,34.3006325,134.7741108,ChIJx0si-FKhVDUR2_9jy1JsPnY,2022-08-14 12:03:26,2022-08-14 12:03:26
211,西野金陵（株）多度津工場,〒764-0028 香川県仲多度郡多度津町葛原１８８０,34.2553098,133.773342,ChIJ44F1vUl9UTUR67MTE5gUjCM,2022-08-14 12:04:18,2022-08-14 12:04:18
212,金陵の郷,〒766-0001 香川県仲多度郡琴平町 623,34.1875826,133.8188973,ChIJf4Vkt0LWUzURSwexBkfucwU,2022-08-14 12:05:29,2022-08-14 12:05:29
213,酔鯨酒造（株） 土佐蔵,〒781-1113 高知県土佐市甲原2001番地1,33.487015,133.3625765,ChIJx47fkMM5TjURr66TqRxZbfA,2022-08-14 12:05:56,2022-08-14 12:05:56
214,栄光酒造（株）,〒791-0101 愛媛県松山市溝辺町４４３,33.851666,132.8080473,ChIJswenWPTmTzUR_qroWMkxd6k,2022-08-14 12:06:16,2022-08-14 12:06:16
215,にきたつ蔵部,〒790-0848 愛媛県松山市道後喜多町３−２３,33.8514019,132.7822541,ChIJ0bKDZtflTzURaXh6Gkap9nk,2022-08-14 12:07:03,2022-08-14 12:07:03
216,八鹿酒造（株）,〒879-4601 大分県玖珠郡九重町右田３３６４,33.2554768,131.1762945,ChIJYe_S6etOQTURH1DJDsyzqyg,2022-08-14 12:10:44,2022-08-14 12:10:44
217,柳川酒造（株）(国の寿製造元),〒832-0821 福岡県柳川市三橋町百町７６６,33.1756926,130.4432211,ChIJed-qwO-yQTURep2dFCyx4Fs,2022-08-14 12:10:53,2022-08-14 12:10:53
218,天吹酒造（合資）,〒849-0113 佐賀県三養基郡みやき町東尾２８９４,33.3257205,130.4576182,ChIJ3aqx49u6QTURp8zrXwH4Q2c,2022-08-14 12:10:59,2022-08-14 12:10:59
219,大和酒造（株）（ぎゃらりー大和）,〒840-0201 佐賀県佐賀市大和町大字尼寺２６２０,33.3101081,130.2841273,ChIJcf91arnJQTURtgQFLZLUHZk,2022-08-14 12:11:31,2022-08-14 12:11:31
220,幸姫酒造（株）,〒849-1321 佐賀県鹿島市古枝５９９,33.0892644,130.1099046,ChIJD5rDBwIlQDUR3cxiuMR3SCA,2022-08-14 12:11:37,2022-08-14 12:11:37
221,辛島 虚空乃蔵,〒879-0456 大分県宇佐市辛島４−３,33.5283767,131.3388196,ChIJ6UEbqz0GRDURU0y3CgTOa68,2022-08-14 12:14:20,2022-08-14 12:14:20
222,梅ケ枝酒造（株）,〒859-3237 長崎県佐世保市城間町３１７,33.0898351,129.8149819,ChIJ64ljyP-XajURcikVmt8zMvg,2022-08-14 12:15:14,2022-08-14 12:15:14
223,宗政酒造 有田蔵工場,〒844-0014 佐賀県西松浦郡有田町戸矢乙340番地28,33.1618146,129.9082289,ChIJ5z8CW3ucajURdLqZmJFiW7s,2022-08-14 12:15:27,2022-08-14 12:15:27
224,瑞鷹（株）東肥大正蔵,〒861-4115 熊本県熊本市南区川尻１丁目３−７２,32.7408575,130.6816516,ChIJ4YmQ53-LQDURgpe_oJ2pySo,2022-08-14 12:18:33,2022-08-14 12:18:33